#dP2022 10 21  0  0  0.00000000      96 __u+U ITR00 FIT  IAC
## 2232 432000.00000000   900.00000000 59873 0.0000000000000
+  117   C06C07C08C09C10C11C12C13C14C16C19C20C21C22C23C24C25
+        C26C27C28C29C30C32C33C34C35C36C37C38C39C40C41C42C43
+        C44C45C46E01E02E03E04E05E07E08E09E10E11E12E13E14E15
+        E18E19E24E25E26E27E30E31E33E34E36G01G02G03G04G05G06
+        G07G08G09G10G11G12G13G14G15G16G17G18G19G20G21G22G23
+        G24G25G26G27G28G29G30G31G32J02J03J04R01R02R03R04R05
+        R07R08R09R11R12R13R14R15R17R18R19R20R21R22R24  0  0
++         8  8  9  8  8  6  6  6  7  8  5  6  6  6  6  6  6
++         6  7  8  6  6  7  8  7  7  6  6  8  8  9  7  8  8
++         7  7  7  6  8  6  7  7  7  7  7  7  7  7  7  6  7
++         6  7  6  7  6  6  6  7  6  6  7  7  7  7  6  6  7
++         6  6  7  5  8  7  6  6  7  7  6  8  7  6  6  7  6
++         6  5  6  6  6  6  6  7  5  8  9  8  6  7  7  5  7
++         6  5  6  7  6  8  6  6  6  7  7  9  6  8  6  0  0
%c M  cc GPS ccc cccc cccc cccc cccc ccccc ccccc ccccc ccccc
%c cc cc ccc ccc cccc cccc cccc cccc ccccc ccccc ccccc ccccc
%f  0.0000000  0.000000000  0.00000000000  0.000000000000000
%f  0.0000000  0.000000000  0.00000000000  0.000000000000000
%i    0    0    0    0      0      0      0      0         0
%i    0    0    0    0      0      0      0      0         0
/* INFORMATION & ANALYSIS CENTER (IAC)      ULTRA-RAPID DATA
/* S/V CLOCKS ARE ALIGNED TO GNSS TIME                      
/* G:C1WC2W R:C1PC2P E:C1XC5X C:C2IC6I J:C1CC2S             
/* PCV:IGS14_2218 OL/AL:FES2004  NONE     YN ORB:CoN CLK:CoN
*  2022 10 21 10 15  0.00000000
PC06 -14500.723236  24658.769951  30910.468996    888.860361
PC07 -12187.130946  40414.572514   1900.754529    325.887418
PC08    456.028822  27960.694348 -31489.383952    498.496026
PC09  -3070.628656  24859.695152  34240.599778   -828.720603
PC10  -6644.709314  41633.423210  -4556.865322     80.533872
PC11 -12677.407879 -11735.621679  21995.578935   -338.812025
PC12   7541.611241 -16493.635784  21244.477399   -473.618334
PC13   8006.034491  32392.630910 -25472.385231    112.594797
PC14  -7405.249351 -20361.420201 -17549.842538    587.535138
PC16 -19442.180358  23580.616387  29113.545743    126.807498
PC19  12746.185176  11391.650289  22074.564728   -925.860904
PC20   1969.542301  25271.369495  11701.241658    858.976879
PC21  10822.069557 -24878.608158   6503.210213   -649.852717
PC22  16670.572940  -9692.458539  20154.059092   -838.540420
PC23 -20671.842185  -1340.796459  18708.972464   -661.779495
PC24  -9403.811293 -22616.494340 -13407.159087   -716.684525
PC25 -22356.386981 -16014.591562   4809.119760     12.869845
PC26   6298.211936 -15811.616338 -22131.791130    -24.559634
PC27 -16385.893315  15935.904496 -16021.284091     39.218527
PC28 -26861.267938   7572.271245   -417.863805     26.793422
PC29  21840.278150   5236.571159 -16564.034376     29.735364
PC30   3402.553589  15611.817268 -22882.060489      0.628711
PC32 -10675.938050  24931.288454  -6579.404190   -750.335503
PC33 -12793.666807 -11415.039061 -22019.805898   -930.580973
PC34  -4663.487348 -15277.649842  22874.077495     21.537076
PC35  26855.118178  -7572.774965  -1032.914931     51.770331
PC36  21776.799227  16919.144363  -4210.905989   -792.458474
PC37  -7911.619178  14691.076549  22380.383184   -578.261736
PC38  -7560.043075  24419.601987 -33476.141762     32.587026
PC39 -23460.176365  23719.395385  25684.830467     -0.680790
PC40 -18506.975638  37653.918056   5197.658687     -6.468420
PC41 -16681.881312   9172.679269 -20360.126808   -194.638456
PC42  -1187.627192 -25755.898013 -10621.794316   -514.276685
PC43 -21313.746714  -5900.947063  17003.610778     20.735551
PC44  16003.625891 -16556.428101  15774.164995     88.442775
PC45  20417.743176   1049.072314 -18978.010782    -12.482455
PC46  10931.720512  22648.081978  12052.869071     -7.723209
PE01  12349.360437 -14149.612916 -22873.218494   -550.604506
PE02 -12269.859677  14308.764031  22822.283584    332.067431
PE03 -21965.711049  19679.398544  -2605.810890   -611.939003
PE04   8874.995866 -23979.387908 -14916.569114  -1141.322300
PE05 -22416.443594   3700.430812 -18978.119283   -132.426728
PE07   9835.910121  14165.065616  24055.867134   -715.010735
PE08  -8854.400259  23937.610688  14993.212726   -619.002858
PE09  -9632.904247 -14167.561629 -24142.644360   -700.887820
PE10 -10604.288616 -17093.089199  21715.152564   -485.193437
PE11 -20761.252390 -15149.041924  14675.636170   1691.367810
PE12    516.911268 -16364.236069  24658.818370   -233.943804
PE13  20094.500891  15333.022906 -15395.535092    430.676372
PE14  10166.442233  17440.591950 -24058.469336     33.896589
PE15   -756.051453  16233.196769 -24733.242056    712.654750
PE18 -18642.877045  -4101.241222  17187.717330   -836.250776
PE19  22894.161627 -18054.910075   5118.039646  -4208.513424
PE24 -13001.408444 -25109.132502   8793.470421   -903.193762
PE25 -17856.721115  -6508.700238  22705.898051   -590.725627
PE26  28941.686451   4919.970645   3736.510917  -1752.365564
PE27  13549.591575  24453.803973  -9698.859271   -420.514919
PE30    644.015100  27956.973164   9677.443225   -933.829822
PE31  -1357.541083 -28179.243633  -8956.524294   -506.252381
PE33  21019.200987  -7556.198518  19426.322767   -454.902767
PE34 -20881.966274   7696.358765 -19529.571551    -10.557764
PE36 -28952.821490  -5457.054150  -2868.644994   -449.075371
PG01  20674.458426  14266.822302  -9450.535714    264.099385
PG02 -20087.079459 -13486.876913  11417.479353   -641.443806
PG03  11857.076218  20744.458346  11590.966834   -366.627287
PG04  12607.675063   9148.792749  21525.726494   -100.041599
PG05  -6361.321381 -25714.669713   -542.449696   -101.226369
PG06  14205.995838  -9252.582749  20528.208231    497.281622
PG07  25723.522069   5696.514338  -4604.772674    296.484813
PG08   3439.797078  16282.617924 -20657.093479    -89.916395
PG09  20305.756721  -2045.267465  16942.062324   -280.200436
PG10 -12408.502979  10376.594375 -20848.098564     -8.433534
PG11   2184.927754 -15309.073556  21601.244919    -28.504567
PG12 -10200.182762 -21783.900925  11111.397597   -294.804956
PG13   6031.995949 -18614.901842 -18044.904011    410.056558
PG14  13972.575981  -8124.050897 -21049.753407    -92.748543
PG15  -5977.681712 -16240.305999 -20526.816070    -19.103112
PG16   -704.204090  25848.818761   4594.385313   -526.474343
PG17  22690.038471 -12642.554942  -5267.297691    670.762612
PG18 -25331.841270  -4447.733316  -6925.120641      6.994588
PG19  19561.860341 -17115.531793   4514.795094    226.698965
PG20   1318.942684 -23398.810193  12725.390512    476.611857
PG21  15086.500510  15194.327174 -15569.860570    157.630790
PG22 -16993.107217  18925.534889   7746.680836    349.691007
PG23 -15443.186439  -1505.530647 -21580.835998     -1.093763
PG24 -18327.966620 -14758.929476 -13043.793521     91.427360
PG25 -15355.839937 -11560.737262  18153.186679    384.599736
PG26  -5719.450145  21252.130317  14541.636253    233.223700
PG27  -8249.300624  20421.544732 -14765.991454    194.210733
PG28   9962.805448 -17714.756916 -16728.175911    326.118075
PG29 -19540.068777   -660.683509  17972.888693   -561.311100
PG30  21813.042457  -3596.388223 -14810.841317   -537.177657
PG31 -13729.047557  10155.901967  20303.901969   -197.528582
PG32 -21183.670573  15493.562575  -3163.821206   -270.258780
PJ02 -25712.677521  25349.770821  26723.039697     -7.766860
PJ03 -33717.068931  17562.560032 -13593.575405     -3.236170
PJ04 -21159.681269  32153.280579 -12101.554240    112.009759
PR01   4405.366772  14614.862961  20432.672563     16.585418
PR02  13172.910112  -4343.167876  21459.017328    -23.069803
PR03  13758.130048 -19392.359339   9358.277931     65.845269
PR04   6869.142003 -23324.753935  -7718.300177    161.960980
PR05  -3771.209917 -14602.270901 -20577.391257    101.583472
PR07 -13553.439885  19795.714868  -8556.359029     42.917732
PR08  -6579.512383  23327.263661   7946.497223    -67.747940
PR09 -16682.108452  -7730.761525  17663.259611     83.208956
PR11   5003.173444  19425.084466  15779.017470     23.930808
PR12  15610.038777  20065.337726  -1949.305142     22.202756
PR13  16861.339554   9374.416745 -16697.617878    -28.038010
PR14   7674.058235  -8281.521264 -22857.460148     24.190544
PR15  -5485.303991 -19926.184315 -14927.127225     93.089204
PR17  20224.340539  -7887.830991  13366.055251    571.004746
PR18   4763.451501 -10608.651969  22726.112223     48.124347
PR19 -11889.865458  -8634.531447  20857.084571   -208.078527
PR20 -25058.568434   -777.470262   4626.998647    -80.637294
PR21 -19207.158957   8209.062672 -14663.839130   -343.318346
PR22  -4296.278770  10838.055042 -22658.693274     14.662960
PR24  25196.365078   -195.844969  -3869.719991    121.631845
EOF
